{
  "type": "FeatureCollection",
  "features": [
    {
      "type": "Feature",
      "properties": {
        "norad_id": 37238,
        "name": "INTELSAT 17 (IS-17)",
        "group": "intelsat",
        "lat": 0.03568070002828352,
        "lon": 15.770027117851729,
        "alt_km": 35789.73202964791,
        "timestamp": "2025-12-03T15:48:02.769137+00:00",
        "meta_object_name": "INTELSAT 17 (IS-17)",
        "meta_object_id": "2010-065B",
        "meta_epoch": "2025-12-03T00:22:20.549568",
        "meta_mean_motion": 1.00272391,
        "meta_eccentricity": 0.0002694,
        "meta_inclination": 0.0168,
        "meta_ra_of_asc_node": 281.0388,
        "meta_arg_of_pericenter": 345.1332,
        "meta_mean_anomaly": 237.5325,
        "meta_ephemeris_type": 0,
        "meta_classification_type": "U",
        "meta_norad_cat_id": 37238,
        "meta_element_set_no": 999,
        "meta_rev_at_epoch": 5128,
        "meta_bstar": 0,
        "meta_mean_motion_dot": 1.8e-07,
        "meta_mean_motion_ddot": 0,
        "tle_line1": "1 37238U 10065B   25337.01551562  .00000018  00000+0  00000+0 0  9997",
        "tle_line2": "2 37238   0.0168 281.0388 0002694 345.1332 237.5325  1.00272391 51280"
      },
      "geometry": {
        "type": "Point",
        "coordinates": [
          15.770027117851729,
          0.03568070002828352
        ]
      }
    },
    {
      "type": "Feature",
      "properties": {
        "norad_id": 37392,
        "name": "INTELSAT 28 (IS-28)",
        "group": "intelsat",
        "lat": -0.30766612227888834,
        "lon": -81.95733157549633,
        "alt_km": 35770.120927680946,
        "timestamp": "2025-12-03T15:48:02.769147+00:00",
        "meta_object_name": "INTELSAT 28 (IS-28)",
        "meta_object_id": "2011-016A",
        "meta_epoch": "2025-12-03T06:45:19.584288",
        "meta_mean_motion": 1.00271332,
        "meta_eccentricity": 0.00040779,
        "meta_inclination": 1.2981,
        "meta_ra_of_asc_node": 85.1696,
        "meta_arg_of_pericenter": 172.2337,
        "meta_mean_anomaly": 244.5975,
        "meta_ephemeris_type": 0,
        "meta_classification_type": "U",
        "meta_norad_cat_id": 37392,
        "meta_element_set_no": 999,
        "meta_rev_at_epoch": 5132,
        "meta_bstar": 0,
        "meta_mean_motion_dot": -2.06e-06,
        "meta_mean_motion_ddot": 0,
        "tle_line1": "1 37392U 11016A   25337.28147667 -.00000206  00000+0  00000+0 0  9991",
        "tle_line2": "2 37392   1.2981  85.1696 0004077 172.2337 244.5975  1.00271332 51321"
      },
      "geometry": {
        "type": "Point",
        "coordinates": [
          -81.95733157549633,
          -0.30766612227888834
        ]
      }
    },
    {
      "type": "Feature",
      "properties": {
        "norad_id": 37834,
        "name": "INTELSAT 18 (IS-18)",
        "group": "intelsat",
        "lat": 0.013811171406486394,
        "lon": 129.70972523691012,
        "alt_km": 35791.21057628617,
        "timestamp": "2025-12-03T15:48:02.769157+00:00",
        "meta_object_name": "INTELSAT 18 (IS-18)",
        "meta_object_id": "2011-056A",
        "meta_epoch": "2025-12-02T14:38:27.603744",
        "meta_mean_motion": 1.00271068,
        "meta_eccentricity": 0.00021353,
        "meta_inclination": 0.0103,
        "meta_ra_of_asc_node": 349.7893,
        "meta_arg_of_pericenter": 263.574,
        "meta_mean_anomaly": 217.9638,
        "meta_ephemeris_type": 0,
        "meta_classification_type": "U",
        "meta_norad_cat_id": 37834,
        "meta_element_set_no": 999,
        "meta_rev_at_epoch": 5184,
        "meta_bstar": 0,
        "meta_mean_motion_dot": 7.3e-07,
        "meta_mean_motion_ddot": 0,
        "tle_line1": "1 37834U 11056A   25336.61004171  .00000073  00000+0  00000+0 0  9995",
        "tle_line2": "2 37834   0.0103 349.7893 0002135 263.5740 217.9638  1.00271068 51841"
      },
      "geometry": {
        "type": "Point",
        "coordinates": [
          129.70972523691012,
          0.013811171406486394
        ]
      }
    },
    {
      "type": "Feature",
      "properties": {
        "norad_id": 38098,
        "name": "INTELSAT 22 (IS-22)",
        "group": "intelsat",
        "lat": -0.004359421034894066,
        "lon": 21.854401821988887,
        "alt_km": 35788.7646317313,
        "timestamp": "2025-12-03T15:48:02.769168+00:00",
        "meta_object_name": "INTELSAT 22 (IS-22)",
        "meta_object_id": "2012-011A",
        "meta_epoch": "2025-12-03T03:42:38.697120",
        "meta_mean_motion": 1.00271004,
        "meta_eccentricity": 0.00019385,
        "meta_inclination": 0.0132,
        "meta_ra_of_asc_node": 94.3442,
        "meta_arg_of_pericenter": 180.1944,
        "meta_mean_anomaly": 285.4738,
        "meta_ephemeris_type": 0,
        "meta_classification_type": "U",
        "meta_norad_cat_id": 38098,
        "meta_element_set_no": 999,
        "meta_rev_at_epoch": 522,
        "meta_bstar": 0,
        "meta_mean_motion_dot": -3.9e-07,
        "meta_mean_motion_ddot": 0,
        "tle_line1": "1 38098U 12011A   25337.15461455 -.00000039  00000+0  00000+0 0  9995",
        "tle_line2": "2 38098   0.0132  94.3442 0001938 180.1944 285.4738  1.00271004  5221"
      },
      "geometry": {
        "type": "Point",
        "coordinates": [
          21.854401821988887,
          -0.004359421034894066
        ]
      }
    },
    {
      "type": "Feature",
      "properties": {
        "norad_id": 38356,
        "name": "INTELSAT 19 (IS-19)",
        "group": "intelsat",
        "lat": 0.01253210948880556,
        "lon": 115.72660708144262,
        "alt_km": 35797.685826448374,
        "timestamp": "2025-12-03T15:48:02.769179+00:00",
        "meta_object_name": "INTELSAT 19 (IS-19)",
        "meta_object_id": "2012-030A",
        "meta_epoch": "2025-12-03T04:16:18.861312",
        "meta_mean_motion": 1.00271683,
        "meta_eccentricity": 0.00034699,
        "meta_inclination": 0.0099,
        "meta_ra_of_asc_node": 315.9316,
        "meta_arg_of_pericenter": 301.8821,
        "meta_mean_anomaly": 44.556,
        "meta_ephemeris_type": 0,
        "meta_classification_type": "U",
        "meta_norad_cat_id": 38356,
        "meta_element_set_no": 999,
        "meta_rev_at_epoch": 4848,
        "meta_bstar": 0,
        "meta_mean_motion_dot": -3.7e-07,
        "meta_mean_motion_ddot": 0,
        "tle_line1": "1 38356U 12030A   25337.17799608 -.00000037  00000+0  00000+0 0  9997",
        "tle_line2": "2 38356   0.0099 315.9316 0003469 301.8821  44.5560  1.00271683 48484"
      },
      "geometry": {
        "type": "Point",
        "coordinates": [
          115.72660708144262,
          0.01253210948880556
        ]
      }
    },
    {
      "type": "Feature",
      "properties": {
        "norad_id": 38740,
        "name": "INTELSAT 20 (IS-20)",
        "group": "intelsat",
        "lat": 0.027819413413997185,
        "lon": 18.220412796674545,
        "alt_km": 35798.02951318435,
        "timestamp": "2025-12-03T15:48:02.769189+00:00",
        "meta_object_name": "INTELSAT 20 (IS-20)",
        "meta_object_id": "2012-043A",
        "meta_epoch": "2025-12-02T22:40:15.332160",
        "meta_mean_motion": 1.00274497,
        "meta_eccentricity": 0.0003028,
        "meta_inclination": 0.0125,
        "meta_ra_of_asc_node": 336.6425,
        "meta_arg_of_pericenter": 218.4136,
        "meta_mean_anomaly": 285.5325,
        "meta_ephemeris_type": 0,
        "meta_classification_type": "U",
        "meta_norad_cat_id": 38740,
        "meta_element_set_no": 999,
        "meta_rev_at_epoch": 4878,
        "meta_bstar": 0,
        "meta_mean_motion_dot": 0,
        "meta_mean_motion_ddot": 0,
        "tle_line1": "1 38740U 12043A   25336.94462190  .00000000  00000+0  00000+0 0  9994",
        "tle_line2": "2 38740   0.0125 336.6425 0003028 218.4136 285.5325  1.00274497 48780"
      },
      "geometry": {
        "type": "Point",
        "coordinates": [
          18.220412796674545,
          0.027819413413997185
        ]
      }
    },
    {
      "type": "Feature",
      "properties": {
        "norad_id": 38749,
        "name": "INTELSAT 21 (IS-21)",
        "group": "intelsat",
        "lat": -0.03945717045779959,
        "lon": -108.26558274037453,
        "alt_km": 35776.62110030926,
        "timestamp": "2025-12-03T15:48:02.769200+00:00",
        "meta_object_name": "INTELSAT 21 (IS-21)",
        "meta_object_id": "2012-045A",
        "meta_epoch": "2025-12-03T06:37:50.300832",
        "meta_mean_motion": 1.0026908,
        "meta_eccentricity": 0.00024493,
        "meta_inclination": 0.0166,
        "meta_ra_of_asc_node": 324.171,
        "meta_arg_of_pericenter": 279.0917,
        "meta_mean_anomaly": 230.5677,
        "meta_ephemeris_type": 0,
        "meta_classification_type": "U",
        "meta_norad_cat_id": 38749,
        "meta_element_set_no": 999,
        "meta_rev_at_epoch": 4856,
        "meta_bstar": 0,
        "meta_mean_motion_dot": -2.66e-06,
        "meta_mean_motion_ddot": 0,
        "tle_line1": "1 38749U 12045A   25337.27627663 -.00000266  00000+0  00000+0 0  9995",
        "tle_line2": "2 38749   0.0166 324.1710 0002449 279.0917 230.5677  1.00269080 48567"
      },
      "geometry": {
        "type": "Point",
        "coordinates": [
          -108.26558274037453,
          -0.03945717045779959
        ]
      }
    }
  ]
}